SENTINEL-1A             
1 39634U 14016A   26197.30461888  .00000182  00000+0  48342-4 0  9995
2 39634  98.1768 204.4124 0001426  85.7195 274.4167 14.59196633654262
SENTINEL-1C             
1 62261U 24235A   26197.27545130  .00000055  00000+0  21444-4 0  9993
2 62261  98.1825 204.1707 0001393  89.9955 270.1405 14.59197992 85653
SENTINEL-1D             
1 66315U 25251A   26197.03560421 -.00000081  00000+0 -74928-5 0  9997
2 66315  98.1841 203.9896 0001328  89.1582 270.9770 14.59197038 36938
