{"fetched_at":"2026-07-16T17:46:57.235Z","source":"https://celestrak.org/NORAD/elements/gp.php?NAME=SENTINEL&FORMAT=JSON","constellation":"sentinel-1","records":[{"OBJECT_NAME":"SENTINEL-1A","OBJECT_ID":"2014-016A","EPOCH":"2026-07-16T07:18:39.071232","CLASSIFICATION_TYPE":"U","MEAN_MOTION":14.59196633,"ECCENTRICITY":0.00014269,"INCLINATION":98.1768,"RA_OF_ASC_NODE":204.4124,"ARG_OF_PERICENTER":85.7195,"MEAN_ANOMALY":274.4167,"EPHEMERIS_TYPE":0,"NORAD_CAT_ID":39634,"ELEMENT_SET_NO":999,"REV_AT_EPOCH":65426,"BSTAR":0.000048342039,"MEAN_MOTION_DOT":0.00000182,"MEAN_MOTION_DDOT":0},{"OBJECT_NAME":"SENTINEL-1C","OBJECT_ID":"2024-235A","EPOCH":"2026-07-16T06:36:38.992320","CLASSIFICATION_TYPE":"U","MEAN_MOTION":14.59197992,"ECCENTRICITY":0.0001393,"INCLINATION":98.1825,"RA_OF_ASC_NODE":204.1707,"ARG_OF_PERICENTER":89.9955,"MEAN_ANOMALY":270.1405,"EPHEMERIS_TYPE":0,"NORAD_CAT_ID":62261,"ELEMENT_SET_NO":999,"REV_AT_EPOCH":8565,"BSTAR":0.000021443631,"MEAN_MOTION_DOT":5.5e-7,"MEAN_MOTION_DDOT":0},{"OBJECT_NAME":"SENTINEL-1D","OBJECT_ID":"2025-251A","EPOCH":"2026-07-16T00:51:16.203744","CLASSIFICATION_TYPE":"U","MEAN_MOTION":14.59197038,"ECCENTRICITY":0.00013282,"INCLINATION":98.1841,"RA_OF_ASC_NODE":203.9896,"ARG_OF_PERICENTER":89.1582,"MEAN_ANOMALY":270.977,"EPHEMERIS_TYPE":0,"NORAD_CAT_ID":66315,"ELEMENT_SET_NO":999,"REV_AT_EPOCH":3693,"BSTAR":-0.000007492824,"MEAN_MOTION_DOT":-8.1e-7,"MEAN_MOTION_DDOT":0}]}
